{
  "norad_id": 52492,
  "name": "STARLINK-3916",
  "history": [
    {
      "epoch": "2026-03-28T21:32:35.103264",
      "apogee_km": 540.6643656784317,
      "perigee_km": 538.7842293349959,
      "latitude_deg": -0.7978001873526702,
      "longitude_deg": -124.62766303983517,
      "semi_major_axis_km": 6917.8612975067135,
      "eccentricity": 0.00013589,
      "inclination_deg": 53.2178,
      "raan_deg": 322.8916,
      "arg_perigee_deg": 94.9425,
      "mean_anomaly_deg": 265.1722,
      "mean_motion_rev_day": 15.08846246
    },
    {
      "epoch": "2026-03-29T00:43:21.370944",
      "apogee_km": 540.6802553459374,
      "perigee_km": 538.7570914687312,
      "latitude_deg": 45.81106093250774,
      "longitude_deg": -111.90958784008399,
      "semi_major_axis_km": 6917.8556734073345,
      "eccentricity": 0.000139,
      "inclination_deg": 53.2171,
      "raan_deg": 322.297,
      "arg_perigee_deg": 93.8285,
      "mean_anomaly_deg": 266.2866,
      "mean_motion_rev_day": 15.08848086
    }
  ]
}